[{"OBJECT_NAME":"STARLINK-31516","OBJECT_ID":"2024-046W","EPOCH":"2025-12-24T20:12:12.911904","MEAN_MOTION":15.30194201,"ECCENTRICITY":8.885e-5,"INCLINATION":53.1592,"RA_OF_ASC_NODE":142.7378,"ARG_OF_PERICENTER":88.7857,"MEAN_ANOMALY":271.3246,"EPHEMERIS_TYPE":0,"CLASSIFICATION_TYPE":"U","NORAD_CAT_ID":59221,"ELEMENT_SET_NO":999,"REV_AT_EPOCH":10158,"BSTAR":2.6631947e-5,"MEAN_MOTION_DOT":4.3e-6,"MEAN_MOTION_DDOT":0},{"OBJECT_NAME":"STARLINK-31490","OBJECT_ID":"2024-046X","EPOCH":"2025-12-24T19:48:03.785184","MEAN_MOTION":15.30194321,"ECCENTRICITY":9.81e-5,"INCLINATION":53.1595,"RA_OF_ASC_NODE":143.34,"ARG_OF_PERICENTER":69.6948,"MEAN_ANOMALY":290.4158,"EPHEMERIS_TYPE":0,"CLASSIFICATION_TYPE":"U","NORAD_CAT_ID":59222,"ELEMENT_SET_NO":999,"REV_AT_EPOCH":10157,"BSTAR":3.7883607e-5,"MEAN_MOTION_DOT":7.63e-6,"MEAN_MOTION_DDOT":0},{"OBJECT_NAME":"STARLINK-31420","OBJECT_ID":"2024-046Y","EPOCH":"2025-12-24T16:35:23.764992","MEAN_MOTION":15.30196151,"ECCENTRICITY":0.00010267,"INCLINATION":53.1587,"RA_OF_ASC_NODE":143.925,"ARG_OF_PERICENTER":100.4071,"MEAN_ANOMALY":259.7045,"EPHEMERIS_TYPE":0,"CLASSIFICATION_TYPE":"U","NORAD_CAT_ID":59223,"ELEMENT_SET_NO":999,"REV_AT_EPOCH":10155,"BSTAR":9.8845656e-5,"MEAN_MOTION_DOT":2.569e-5,"MEAN_MOTION_DDOT":0},{"OBJECT_NAME":"STARLINK-31304","OBJECT_ID":"2024-049A","EPOCH":"2025-12-25T00:00:02.999808","MEAN_MOTION":15.36366566,"ECCENTRICITY":0.00101053,"INCLINATION":42.9996,"RA_OF_ASC_NODE":193.3162,"ARG_OF_PERICENTER":266.6153,"MEAN_ANOMALY":56.1421,"EPHEMERIS_TYPE":0,"CLASSIFICATION_TYPE":"U","NORAD_CAT_ID":59231,"ELEMENT_SET_NO":999,"REV_AT_EPOCH":575,"BSTAR":0.0045914059,"MEAN_MOTION_DOT":0.00170174,"MEAN_MOTION_DDOT":0},{"OBJECT_NAME":"STARLINK-31305","OBJECT_ID":"2024-049B","EPOCH":"2025-12-24T20:33:01.458432","MEAN_MOTION":15.27572265,"ECCENTRICITY":0.00013924,"INCLINATION":43.0016,"RA_OF_ASC_NODE":205.9328,"ARG_OF_PERICENTER":255.7862,"MEAN_ANOMALY":104.2835,"EPHEMERIS_TYPE":0,"CLASSIFICATION_TYPE":"U","NORAD_CAT_ID":59232,"ELEMENT_SET_NO":999,"REV_AT_EPOCH":10094,"BSTAR":3.9804585e-5,"MEAN_MOTION_DOT":8.33e-6,"MEAN_MOTION_DDOT":0},{"OBJECT_NAME":"STARLINK-31459","OBJECT_ID":"2024-049C","EPOCH":"2025-12-24T20:55:13.866528","MEAN_MOTION":15.27578383,"ECCENTRICITY":0.00012096,"INCLINATION":43.0019,"RA_OF_ASC_NODE":206.0682,"ARG_OF_PERICENTER":261.4042,"MEAN_ANOMALY":98.6673,"EPHEMERIS_TYPE":0,"CLASSIFICATION_TYPE":"U","NORAD_CAT_ID":59233,"ELEMENT_SET_NO":999,"REV_AT_EPOCH":10095,"BSTAR":-5.51022e-6,"MEAN_MOTION_DOT":-4.14e-6,"MEAN_MOTION_DDOT":0},{"OBJECT_NAME":"STARLINK-31438","OBJECT_ID":"2024-049D","EPOCH":"2025-12-24T19:47:00.353760","MEAN_MOTION":15.27577924,"ECCENTRICITY":0.0001535,"INCLINATION":43.0001,"RA_OF_ASC_NODE":195.3258,"ARG_OF_PERICENTER":268.4211,"MEAN_ANOMALY":91.6465,"EPHEMERIS_TYPE":0,"CLASSIFICATION_TYPE":"U","NORAD_CAT_ID":59234,"ELEMENT_SET_NO":999,"REV_AT_EPOCH":10107,"BSTAR":1.9998246e-5,"MEAN_MOTION_DOT":2.88e-6,"MEAN_MOTION_DDOT":0},{"OBJECT_NAME":"STARLINK-31467","OBJECT_ID":"2024-049E","EPOCH":"2025-12-24T20:51:31.549824","MEAN_MOTION":15.27582872,"ECCENTRICITY":0.00012267,"INCLINATION":42.9998,"RA_OF_ASC_NODE":206.0478,"ARG_OF_PERICENTER":265.1061,"MEAN_ANOMALY":94.9651,"EPHEMERIS_TYPE":0,"CLASSIFICATION_TYPE":"U","NORAD_CAT_ID":59235,"ELEMENT_SET_NO":999,"REV_AT_EPOCH":10096,"BSTAR":9.888149e-6,"MEAN_MOTION_DOT":1.0e-7,"MEAN_MOTION_DDOT":0},{"OBJECT_NAME":"STARLINK-31444","OBJECT_ID":"2024-049F","EPOCH":"2025-12-24T17:59:13.613568","MEAN_MOTION":15.27569893,"ECCENTRICITY":0.00017278,"INCLINATION":43.0049,"RA_OF_ASC_NODE":137.2586,"ARG_OF_PERICENTER":271.512,"MEAN_ANOMALY":88.5534,"EPHEMERIS_TYPE":0,"CLASSIFICATION_TYPE":"U","NORAD_CAT_ID":59236,"ELEMENT_SET_NO":999,"REV_AT_EPOCH":10171,"BSTAR":-8.8735188e-5,"MEAN_MOTION_DOT":-2.703e-5,"MEAN_MOTION_DDOT":0},{"OBJECT_NAME":"STARLINK-31505","OBJECT_ID":"2024-049G","EPOCH":"2025-12-24T14:44:10.766400","MEAN_MOTION":15.27568096,"ECCENTRICITY":0.00017362,"INCLINATION":42.9972,"RA_OF_ASC_NODE":207.583,"ARG_OF_PERICENTER":151.3636,"MEAN_ANOMALY":208.7311,"EPHEMERIS_TYPE":0,"CLASSIFICATION_TYPE":"U","NORAD_CAT_ID":59237,"ELEMENT_SET_NO":999,"REV_AT_EPOCH":10092,"BSTAR":0.0001157124,"MEAN_MOTION_DOT":2.922e-5,"MEAN_MOTION_DDOT":0},{"OBJECT_NAME":"STARLINK-31494","OBJECT_ID":"2024-049H","EPOCH":"2025-12-24T20:29:19.813056","MEAN_MOTION":15.2756402,"ECCENTRICITY":0.00014094,"INCLINATION":43.0008,"RA_OF_ASC_NODE":205.9339,"ARG_OF_PERICENTER":269.6149,"MEAN_ANOMALY":90.4541,"EPHEMERIS_TYPE":0,"CLASSIFICATION_TYPE":"U","NORAD_CAT_ID":59238,"ELEMENT_SET_NO":999,"REV_AT_EPOCH":10096,"BSTAR":-2.9835576e-5,"MEAN_MOTION_DOT":-1.083e-5,"MEAN_MOTION_DDOT":0},{"OBJECT_NAME":"STARLINK-31303","OBJECT_ID":"2024-049J","EPOCH":"2025-12-23T23:47:01.087584","MEAN_MOTION":15.27583418,"ECCENTRICITY":0.00029353,"INCLINATION":43.0041,"RA_OF_ASC_NODE":200.1893,"ARG_OF_PERICENTER":276.2162,"MEAN_ANOMALY":83.8356,"EPHEMERIS_TYPE":0,"CLASSIFICATION_TYPE":"U","NORAD_CAT_ID":59239,"ELEMENT_SET_NO":999,"REV_AT_EPOCH":10095,"BSTAR":-4.2318766e-5,"MEAN_MOTION_DOT":-1.427e-5,"MEAN_MOTION_DDOT":0},{"OBJECT_NAME":"STARLINK-31408","OBJECT_ID":"2024-049K","EPOCH":"2025-12-24T21:26:40.871040","MEAN_MOTION":15.27581354,"ECCENTRICITY":7.706e-5,"INCLINATION":42.9984,"RA_OF_ASC_NODE":206.2347,"ARG_OF_PERICENTER":267.9,"MEAN_ANOMALY":92.1764,"EPHEMERIS_TYPE":0,"CLASSIFICATION_TYPE":"U","NORAD_CAT_ID":59240,"ELEMENT_SET_NO":999,"REV_AT_EPOCH":10096,"BSTAR":3.1051155e-5,"MEAN_MOTION_DOT":5.93e-6,"MEAN_MOTION_DDOT":0},{"OBJECT_NAME":"STARLINK-31427","OBJECT_ID":"2024-049L","EPOCH":"2025-12-24T15:15:36.372960","MEAN_MOTION":15.27592845,"ECCENTRICITY":6.314e-5,"INCLINATION":43.0029,"RA_OF_ASC_NODE":207.7106,"ARG_OF_PERICENTER":269.9073,"MEAN_ANOMALY":90.1706,"EPHEMERIS_TYPE":0,"CLASSIFICATION_TYPE":"U","NORAD_CAT_ID":59241,"ELEMENT_SET_NO":999,"REV_AT_EPOCH":10092,"BSTAR":-0.00014151677,"MEAN_MOTION_DOT":-4.155e-5,"MEAN_MOTION_DDOT":0},{"OBJECT_NAME":"STARLINK-31423","OBJECT_ID":"2024-049M","EPOCH":"2025-12-24T15:06:22.073760","MEAN_MOTION":15.27571827,"ECCENTRICITY":9.883e-5,"INCLINATION":43.0017,"RA_OF_ASC_NODE":207.6877,"ARG_OF_PERICENTER":271.7776,"MEAN_ANOMALY":88.2963,"EPHEMERIS_TYPE":0,"CLASSIFICATION_TYPE":"U","NORAD_CAT_ID":59242,"ELEMENT_SET_NO":999,"REV_AT_EPOCH":10092,"BSTAR":-1.252977e-5,"MEAN_MOTION_DOT":-6.07e-6,"MEAN_MOTION_DDOT":0},{"OBJECT_NAME":"STARLINK-31433","OBJECT_ID":"2024-049N","EPOCH":"2025-12-24T20:45:58.412160","MEAN_MOTION":15.27581963,"ECCENTRICITY":8.97e-5,"INCLINATION":43.0009,"RA_OF_ASC_NODE":206.0177,"ARG_OF_PERICENTER":275.9798,"MEAN_ANOMALY":84.0951,"EPHEMERIS_TYPE":0,"CLASSIFICATION_TYPE":"U","NORAD_CAT_ID":59243,"ELEMENT_SET_NO":999,"REV_AT_EPOCH":10096,"BSTAR":-8.758457e-6,"MEAN_MOTION_DOT":-5.03e-6,"MEAN_MOTION_DDOT":0},{"OBJECT_NAME":"STARLINK-31285","OBJECT_ID":"2024-049P","EPOCH":"2025-12-24T15:41:18.466080","MEAN_MOTION":15.2756575,"ECCENTRICITY":0.00013627,"INCLINATION":43.0023,"RA_OF_ASC_NODE":207.0141,"ARG_OF_PERICENTER":265.0868,"MEAN_ANOMALY":94.9828,"EPHEMERIS_TYPE":0,"CLASSIFICATION_TYPE":"U","NORAD_CAT_ID":59244,"ELEMENT_SET_NO":999,"REV_AT_EPOCH":10092,"BSTAR":8.0443377e-5,"MEAN_MOTION_DOT":1.951e-5,"MEAN_MOTION_DDOT":0},{"OBJECT_NAME":"STARLINK-31268","OBJECT_ID":"2024-049Q","EPOCH":"2025-12-25T00:00:02.999808","MEAN_MOTION":15.35577064,"ECCENTRICITY":0.0009594,"INCLINATION":42.9974,"RA_OF_ASC_NODE":200.3087,"ARG_OF_PERICENTER":266.005,"MEAN_ANOMALY":342.9702,"EPHEMERIS_TYPE":0,"CLASSIFICATION_TYPE":"U","NORAD_CAT_ID":59245,"ELEMENT_SET_NO":999,"REV_AT_EPOCH":582,"BSTAR":0.0046015106,"MEAN_MOTION_DOT":0.00166159,"MEAN_MOTION_DDOT":0},{"OBJECT_NAME":"STARLINK-31284","OBJECT_ID":"2024-049R","EPOCH":"2025-12-24T22:14:35.552832","MEAN_MOTION":15.27581995,"ECCENTRICITY":9.883e-5,"INCLINATION":43.0001,"RA_OF_ASC_NODE":205.6185,"ARG_OF_PERICENTER":268.6209,"MEAN_ANOMALY":91.453,"EPHEMERIS_TYPE":0,"CLASSIFICATION_TYPE":"U","NORAD_CAT_ID":59246,"ELEMENT_SET_NO":999,"REV_AT_EPOCH":10096,"BSTAR":-2.3537314e-5,"MEAN_MOTION_DOT":-9.1e-6,"MEAN_MOTION_DDOT":0},{"OBJECT_NAME":"STARLINK-31424","OBJECT_ID":"2024-049S","EPOCH":"2025-12-24T20:54:04.450176","MEAN_MOTION":15.27578444,"ECCENTRICITY":9.373e-5,"INCLINATION":42.9995,"RA_OF_ASC_NODE":202.5963,"ARG_OF_PERICENTER":263.8129,"MEAN_ANOMALY":96.2616,"EPHEMERIS_TYPE":0,"CLASSIFICATION_TYPE":"U","NORAD_CAT_ID":59247,"ELEMENT_SET_NO":999,"REV_AT_EPOCH":10099,"BSTAR":4.4180807e-5,"MEAN_MOTION_DOT":9.54e-6,"MEAN_MOTION_DDOT":0},{"OBJECT_NAME":"STARLINK-31405","OBJECT_ID":"2024-049T","EPOCH":"2025-12-24T21:11:53.174976","MEAN_MOTION":15.27567454,"ECCENTRICITY":0.00015069,"INCLINATION":43.0025,"RA_OF_ASC_NODE":206.1518,"ARG_OF_PERICENTER":270.529,"MEAN_ANOMALY":89.5389,"EPHEMERIS_TYPE":0,"CLASSIFICATION_TYPE":"U","NORAD_CAT_ID":59248,"ELEMENT_SET_NO":999,"REV_AT_EPOCH":10095,"BSTAR":4.8641938e-5,"MEAN_MOTION_DOT":1.076e-5,"MEAN_MOTION_DDOT":0},{"OBJECT_NAME":"STARLINK-31426","OBJECT_ID":"2024-049U","EPOCH":"2025-12-24T21:17:26.093184","MEAN_MOTION":15.27576446,"ECCENTRICITY":0.00010245,"INCLINATION":42.9987,"RA_OF_ASC_NODE":206.175,"ARG_OF_PERICENTER":267.848,"MEAN_ANOMALY":92.2255,"EPHEMERIS_TYPE":0,"CLASSIFICATION_TYPE":"U","NORAD_CAT_ID":59249,"ELEMENT_SET_NO":999,"REV_AT_EPOCH":10095,"BSTAR":8.278531e-6,"MEAN_MOTION_DOT":-3.4e-7,"MEAN_MOTION_DDOT":0},{"OBJECT_NAME":"STARLINK-31407","OBJECT_ID":"2024-049V","EPOCH":"2025-12-23T22:58:55.489152","MEAN_MOTION":15.27575302,"ECCENTRICITY":0.0001659,"INCLINATION":43.0044,"RA_OF_ASC_NODE":200.0029,"ARG_OF_PERICENTER":263.7368,"MEAN_ANOMALY":96.3295,"EPHEMERIS_TYPE":0,"CLASSIFICATION_TYPE":"U","NORAD_CAT_ID":59250,"ELEMENT_SET_NO":999,"REV_AT_EPOCH":10094,"BSTAR":4.8974e-6,"MEAN_MOTION_DOT":-1.28e-6,"MEAN_MOTION_DDOT":0}]
